[{"Postcode":"2306","SuburbName":"Sydney","State":"New South Wales"},
{"Postcode":"2428","SuburbName":"Sydney","State":"New South Wales"},
{"Postcode":"2172","SuburbName":"Sydney","State":"New South Wales"},
{"Postcode":"2921","SuburbName":"Sydney","State":"New South Wales"},
{"Postcode":"2390","SuburbName":"Sydney","State":"New South Wales"},
{"Postcode":"2260","SuburbName":"Sydney","State":"New South Wales"},
{"Postcode":"2239","SuburbName":"Sydney","State":"New South Wales"},
{"Postcode":"2883","SuburbName":"Sydney","State":"New South Wales"},
{"Postcode":"2970","SuburbName":"Eastern Suburbs Mc","State":"New South Wales"},
{"Postcode":"2616","SuburbName":"Sydney South","State":"New South Wales"},
{"Postcode":"2787","SuburbName":"Sydney","State":"New South Wales"},
{"Postcode":"2236","SuburbName":"Eastern Suburbs Mc","State":"New South Wales"},
{"Postcode":"2309","SuburbName":"Eastern Suburbs Mc","State":"New South Wales"},
{"Postcode":"2273","SuburbName":"Sydney","State":"New South Wales"},
{"Postcode":"2209","SuburbName":"Sydney","State":"New South Wales"},
{"Postcode":"2985","SuburbName":"Sydney","State":"New South Wales"},
{"Postcode":"2586","SuburbName":"Sydney","State":"New South Wales"},
{"Postcode":"2899","SuburbName":"Sydney","State":"New South Wales"},
{"Postcode":"2200","SuburbName":"Sydney","State":"New South Wales"},
{"Postcode":"2591","SuburbName":"Sydney","State":"New South Wales"},
{"Postcode":"2573","SuburbName":"Sydney","State":"New South Wales"},
{"Postcode":"2559","SuburbName":"Northern Suburbs Mc","State":"New South Wales"},
{"Postcode":"2101","SuburbName":"Sydney","State":"New South Wales"},
{"Postcode":"2237","SuburbName":"Sydney","State":"New South Wales"},
{"Postcode":"2519","SuburbName":"Eastern Suburbs Mc","State":"New South Wales"},
{"Postcode":"2730","SuburbName":"Eastern Suburbs Mc","State":"New South Wales"},
{"Postcode":"2327","SuburbName":"Sydney","State":"New South Wales"},
{"Postcode":"2804","SuburbName":"Eastern Suburbs Mc","State":"New South Wales"},
{"Postcode":"2143","SuburbName":"Sydney","State":"New South Wales"},
{"Postcode":"2186","SuburbName":"Eastern Suburbs Mc","State":"New South Wales"},
{"Postcode":"2115","SuburbName":"Strawberry Hills","State":"New South Wales"},
{"Postcode":"2379","SuburbName":"Sydney","State":"New South Wales"},
{"Postcode":"2029","SuburbName":"Sydney","State":"New South Wales"},
{"Postcode":"2972","SuburbName":"Sydney","State":"New South Wales"},
{"Postcode":"2400","SuburbName":"Sydney","State":"New South Wales"},
{"Postcode":"2822","SuburbName":"Sydney","State":"New South Wales"},
{"Postcode":"2963","SuburbName":"Sydney","State":"New South Wales"},
{"Postcode":"2374","SuburbName":"Eastern Suburbs Mc","State":"New South Wales"},
{"Postcode":"2895","SuburbName":"Strawberry Hills","State":"New South Wales"},
{"Postcode":"2699","SuburbName":"Sydney","State":"New South Wales"},
{"Postcode":"2845","SuburbName":"Sydney","State":"New South Wales"},
{"Postcode":"2179","SuburbName":"Northern Suburbs Mc","State":"New South Wales"},
{"Postcode":"2745","SuburbName":"Sydney","State":"New South Wales"},
{"Postcode":"2624","SuburbName":"Eastern Suburbs Mc","State":"New South Wales"},
{"Postcode":"2426","SuburbName":"Sydney","State":"New South Wales"},
{"Postcode":"2980","SuburbName":"Sydney","State":"New South Wales"},
{"Postcode":"2637","SuburbName":"Sydney","State":"New South Wales"},
{"Postcode":"2389","SuburbName":"Sydney","State":"New South Wales"},
{"Postcode":"2841","SuburbName":"Strawberry Hills","State":"New South Wales"},
{"Postcode":"2542","SuburbName":"Sydney","State":"New South Wales"},
{"Postcode":"2412","SuburbName":"Northern Suburbs Mc","State":"New South Wales"},
{"Postcode":"2218","SuburbName":"Sydney","State":"New South Wales"},
{"Postcode":"2871","SuburbName":"Sydney","State":"New South Wales"},
{"Postcode":"2325","SuburbName":"Sydney","State":"New South Wales"},
{"Postcode":"2110","SuburbName":"Sydney","State":"New South Wales"},
{"Postcode":"2002","SuburbName":"Sydney","State":"New South Wales"},
{"Postcode":"2943","SuburbName":"Eastern Suburbs Mc","State":"New South Wales"},
{"Postcode":"2525","SuburbName":"Sydney South","State":"New South Wales"},
{"Postcode":"2047","SuburbName":"Eastern Suburbs Mc","State":"New South Wales"},
{"Postcode":"2011","SuburbName":"Eastern Suburbs Mc","State":"New South Wales"},
{"Postcode":"2376","SuburbName":"Sydney","State":"New South Wales"},
{"Postcode":"2414","SuburbName":"Eastern Suburbs Mc","State":"New South Wales"},
{"Postcode":"2406","SuburbName":"Sydney","State":"New South Wales"},
{"Postcode":"2609","SuburbName":"Eastern Suburbs Mc","State":"New South Wales"},
{"Postcode":"2392","SuburbName":"Sydney","State":"New South Wales"},
{"Postcode":"2002","SuburbName":"Eastern Suburbs Mc","State":"New South Wales"},
{"Postcode":"2593","SuburbName":"Strawberry Hills","State":"New South Wales"},
{"Postcode":"2405","SuburbName":"Sydney","State":"New South Wales"},
{"Postcode":"2238","SuburbName":"Sydney","State":"New South Wales"},
{"Postcode":"2329","SuburbName":"Sydney","State":"New South Wales"},
{"Postcode":"2521","SuburbName":"Sydney","State":"New South Wales"},
{"Postcode":"2224","SuburbName":"Sydney","State":"New South Wales"},
{"Postcode":"2751","SuburbName":"Eastern Suburbs Mc","State":"New South Wales"},
{"Postcode":"2344","SuburbName":"Sydney","State":"New South Wales"},
{"Postcode":"2239","SuburbName":"Sydney","State":"New South Wales"},
{"Postcode":"2924","SuburbName":"Eastern Suburbs Mc","State":"New South Wales"},
{"Postcode":"2316","SuburbName":"Sydney","State":"New South Wales"},
{"Postcode":"2873","SuburbName":"Strawberry Hills","State":"New South Wales"},
{"Postcode":"2871","SuburbName":"Sydney","State":"New South Wales"},
{"Postcode":"2623","SuburbName":"Sydney","State":"New South Wales"},
{"Postcode":"2982","SuburbName":"Sydney","State":"New South Wales"},
{"Postcode":"2775","SuburbName":"Eastern Suburbs Mc","State":"New South Wales"},
{"Postcode":"2794","SuburbName":"Sydney","State":"New South Wales"},
{"Postcode":"2681","SuburbName":"Sydney","State":"New South Wales"},
{"Postcode":"2762","SuburbName":"Sydney","State":"New South Wales"},
{"Postcode":"2478","SuburbName":"Eastern Suburbs Mc","State":"New South Wales"},
{"Postcode":"2277","SuburbName":"Sydney","State":"New South Wales"},
{"Postcode":"2860","SuburbName":"Eastern Suburbs Mc","State":"New South Wales"},
{"Postcode":"2305","SuburbName":"Eastern Suburbs Mc","State":"New South Wales"},
{"Postcode":"2999","SuburbName":"Sydney","State":"New South Wales"},
{"Postcode":"2237","SuburbName":"Australia Square","State":"New South Wales"},
{"Postcode":"2950","SuburbName":"Sydney","State":"New South Wales"},
{"Postcode":"2798","SuburbName":"Sydney","State":"New South Wales"},
{"Postcode":"2592","SuburbName":"Australia Square","State":"New South Wales"},
{"Postcode":"2497","SuburbName":"Australia Square","State":"New South Wales"},
{"Postcode":"2078","SuburbName":"Sydney South","State":"New South Wales"},
{"Postcode":"2979","SuburbName":"Sydney South","State":"New South Wales"},
{"Postcode":"2759","SuburbName":"Eastern Suburbs Mc","State":"New South Wales"},
{"Postcode":"2860","SuburbName":"Australia Square","State":"New South Wales"},
{"Postcode":"2709","SuburbName":"Sydney","State":"New South Wales"}]